CUTE-1 (CO-55)          
1 27844U 03031E   25190.96366813  .00000212  00000+0  11127-3 0  9990
2 27844  98.6756 198.8447 0010909  98.3532 261.8884 14.24015391142967
CUBESAT XI-IV (CO-57)   
1 27848U 03031J   25190.99659389  .00000174  00000+0  95937-4 0  9999
2 27848  98.6783 198.8600 0010669 113.7014 246.5285 14.23347484142743
CUBESAT XI-V            
1 28895U 05043F   25190.85472399  .00001043  00000+0  17783-3 0  9994
2 28895  98.2534 335.5904 0013957 206.3894 153.6603 14.71092032 51392
CUTE-1.7+APD II (CO-65) 
1 32785U 08021C   25190.93224677  .00003656  00000+0  26419-3 0  9997
2 32785  97.7864 162.3268 0011228 107.6190 252.6263 15.04661601933645
CANX-2                  
1 32790U 08021H   25191.15148242  .00001774  00000+0  14038-3 0  9994
2 32790  97.8167 161.1420 0012722 108.3985 251.8623 15.01876177933481
SEEDS II (CO-66)        
1 32791U 08021J   25190.87409165  .00007431  00000+0  35541-3 0  9995
2 32791  97.7283 171.6046 0005619  75.7915 284.3943 15.19284787935091
SWISSCUBE               
1 35932U 09051B   25191.16790636  .00000658  00000+0  14300-3 0  9992
2 35932  98.4272  87.9728 0006491 185.9989 174.1134 14.61392976839229
BEESAT-1                
1 35933U 09051C   25191.22312840  .00000550  00000+0  12276-3 0  9998
2 35933  98.4202  88.3285 0004695 196.9743 163.1300 14.60798791839328
ITUPSAT1                
1 35935U 09051E   25191.19673440  .00000503  00000+0  11604-3 0  9994
2 35935  98.4296  87.8170 0006706 211.1659 148.9143 14.59592700838865
TISAT 1                 
1 36799U 10035E   25190.73777740  .00006643  00000+0  33798-3 0  9993
2 36799  98.0571 106.6806 0003507  27.3203 332.8212 15.17197417815542
AEROCUBE 4.5A           
1 38767U 12048K   25191.16789248  .00013606  00000+0  35128-3 0  9996
2 38767  64.6470 123.3303 0097805 267.7363  91.2568 15.34602081319518
STRAND-1                
1 39090U 13009E   25190.75896254  .00000200  00000+0  81928-4 0  9990
2 39090  98.3830  14.6630 0008948 166.6868 193.4557 14.36836577647881
BRITE-AUSTRIA           
1 39091U 13009F   25190.77523106  .00000124  00000+0  57118-4 0  9995
2 39091  98.3889  13.9283 0010277 175.7897 184.3377 14.36322458647891
NEE-01 PEGASO           
1 39151U 13018B   25191.12136554  .00001793  00000+0  18735-3 0  9993
2 39151  98.0769 320.6626 0012772 204.1789 155.8830 14.90963101659694
POPACS 1                
1 39268U 13055D   25191.02562185  .00034196 -35570-6  28663-3 0  9997
2 39268  80.9685  49.2571 0226946 238.2887 119.6058 15.43131500620798
POPACS 2                
1 39269U 13055E   25190.67674730  .00008907  00000+0  17384-3 0  9999
2 39269  80.9948 171.9813 0473723 202.4017 155.5889 14.76459030612415
POPACS 3                
1 39270U 13055F   25191.16896641  .00007915  00000+0  19811-3 0  9998
2 39270  81.0029 237.8674 0581939  26.1272 336.8077 14.48550673609614
ZACUBE-1 (TSHEPISOSAT)  
1 39417U 13066B   25190.93676695  .00002712  00000+0  23731-3 0  9998
2 39417  97.7802 147.7957 0042895 311.9077  47.8490 14.96888830629458
WNISAT-1                
1 39423U 13066H   25190.94542010  .00000609  00000+0  12158-3 0  9993
2 39423  97.6797   0.4904 0164269 229.4646 129.2151 14.57140120616870
TRITON-1                
1 39427U 13066M   25191.18291743  .00001390  00000+0  18144-3 0  9997
2 39427  97.8352 104.1834 0092659 267.1894  91.8710 14.79210489623675
GOMX-1                  
1 39430U 13066Q   25191.16534989  .00001385  00000+0  22000-3 0  9991
2 39430  97.6808  47.9489 0133818  94.4716 267.1791 14.67738293619891
CUBEBUG-2 (LO-74)       
1 39440U 13066AA  25190.83018322  .00002052  00000+0  21027-3 0  9993
2 39440  97.8503 135.1849 0063491  80.4854 280.3531 14.90095995625946
NEE-02 KRYSAOR          
1 39441U 13066AB  25190.78418926  .00001356  00000+0  16061-3 0  9990
2 39441  97.8560 128.6972 0070288 110.9077 249.9680 14.84457001625367
FUNCUBE-1 (AO-73)       
1 39444U 13066AE  25190.78183830  .00004674  00000+0  34898-3 0  9990
2 39444  97.7814 152.8170 0040957 284.8166  74.8523 15.02667046628121
UWE-3                   
1 39446U 13066AG  25190.82988739  .00002566  00000+0  24511-3 0  9997
2 39446  97.8250 141.5900 0053662  20.5999 339.7367 14.93108410626424
BRITE-CA1 (TORONTO)     
1 40020U 14033L   25191.10067613  .00000465  00000+0  79496-4 0  9992
2 40020  97.9296 322.5290 0078707 292.3222  66.9656 14.71666452591997
DUCHIFAT-1              
1 40021U 14033M   25190.95456646  .00013045  00000+0  45709-3 0  9990
2 40021  98.0935 207.9537 0008285 197.8327 162.2622 15.29594093602967
NANOSATC-BR1            
1 40024U 14033Q   25191.24367376  .00006604  00000+0  31971-3 0  9996
2 40024  98.0899 191.3117 0002812 296.8412  63.2533 15.18944652602389
QB50P1                  
1 40025U 14033R   25191.20971170  .00004153  00000+0  25369-3 0  9997
2 40025  98.0837 175.5149 0008868 319.4702  40.5865 15.10869376601771
QB50P2                  
1 40032U 14033Y   25190.89041514  .00003705  00000+0  24091-3 0  9992
2 40032  98.0439 163.7970 0006890 255.1567 104.8897 15.08658686600940
PERSEUS-M2              
1 40037U 14033AD  25191.18255197  .00001435  00000+0  14070-3 0  9998
2 40037  97.9561 131.1183 0012210   0.5142 359.6088 14.93821889600197
PERSEUS-M1              
1 40039U 14033AF  25191.23600598  .00001509  00000+0  14765-3 0  9998
2 40039  97.9296 126.0244 0011961 359.2536   0.8663 14.93813437600068
POLYITAN-1              
1 40042U 14033AJ  25190.93440618  .00008305  00000+0  39723-3 0  9995
2 40042  98.1025 183.4280 0007948 250.6897 109.3476 15.19255774601393
TIGRISAT                
1 40043U 14033AK  25190.69425939  .00001502  00000+0  18651-3 0  9997
2 40043  97.7384 345.0121 0052689 116.8468 243.8147 14.83071808594828
AEROCUBE 6A             
1 40045U 14033AM  25190.43339773  .00003361  00000+0  32609-3 0  9995
2 40045  97.6946 358.0264 0044290  81.1657 279.4573 14.92587977595398
AEROCUBE 6B             
1 40046U 14033AN  25191.20812475  .00003888  00000+0  36559-3 0  9999
2 40046  97.6923 357.9590 0042827  72.2418 288.3469 14.93782867595988
CANX-4                  
1 40055U 14034C   25191.03608294  .00000632  00000+0  90484-4 0  9995
2 40055  98.3595  48.0126 0013760  34.7241 325.4865 14.80274694593920
CANX-5                  
1 40056U 14034D   25191.17339049  .00000646  00000+0  92305-4 0  9999
2 40056  98.3598  48.1794 0013757  34.5210 325.6891 14.80288761593949
UKUBE-1                 
1 40074U 14037F   25190.87077755  .00004273  00000+0  29947-3 0  9992
2 40074  98.3938 155.8347 0000993 165.0539 195.0715 15.05828534596908
BRITE-PL2 (HEWELIUSZ)   
1 40119U 14049B   25190.85445912  .00001480  00000+0  14901-3 0  9998
2 40119  97.8925 296.1593 0015101 159.4104 200.7727 14.92666034590341
AEROCUBE 5C             
1 40965U 15058B   25191.10843111  .00001937  00000+0  17805-3 0  9993
2 40965  64.7669 244.7051 0160435 190.6766 169.0928 14.88739247314670
AEROCUBE 7              
1 40966U 15058C   25191.17403791  .00002238  00000+0  19054-3 0  9990
2 40966  64.7622 233.2112 0151970 190.6350 169.1540 14.92068132314881
FOX-1A (AO-85)          
1 40967U 15058D   25190.90785221  .00002272  00000+0  21099-3 0  9992
2 40967  64.7755 260.5712 0156695 185.6015 174.3351 14.88242195 62582
SINOD-D 1               
1 40968U 15058E   25191.18017603  .00002551  00000+0  21822-3 0  9990
2 40968  64.7750 246.9721 0146184 184.5061 175.4748 14.92124721 65569
SNAP-3 ALICE            
1 40970U 15058G   25191.23229477  .00011286  00000+0  46010-3 0  9994
2 40970  64.7639 165.1062 0079954 186.1404 173.8752 15.21904264 64339
LMRST-SAT               
1 40971U 15058H   25190.51586452  .00002093  00000+0  19572-3 0  9993
2 40971  64.7755 257.5515 0159158 187.2192 172.6629 14.87969227 62529
SNAP-3 EDDIE            
1 40972U 15058J   25190.61516489  .00011122  00000+0  44305-3 0  9993
2 40972  64.7561 159.5852 0085127 188.2076 171.7666 15.22289100 66357
PROPCUBE 3              
1 40973U 15058K   25191.19027343  .00002087  00000+0  18316-3 0  9997
2 40973  64.7678 238.5157 0153553 188.9753 170.8611 14.90976335 63759
BISONSAT                
1 40974U 15058L   25190.61508867  .00004140  00000+0  25180-3 0  9998
2 40974  64.7605 193.0401 0115739 187.8254 172.1066 15.06461606 63842
SNAP-3 JIMI             
1 40975U 15058M   25191.19575482  .00002478  00000+0  18989-3 0  9991
2 40975  64.7645 217.6982 0137937 188.2284 171.6571 14.97128233 62935
PROPCUBE 1 (FLORA)      
1 40976U 15058N   25191.17407086  .00002252  00000+0  21690-3 0  9997
2 40976  64.7752 273.2675 0158681 188.7832 171.0498 14.86666277 65371
SINOD-D 3               
1 40977U 15058P   25191.20385245  .00002667  00000+0  23623-3 0  9992
2 40977  64.7729 260.9610 0148372 188.1285 171.7423 14.90470505 63724
HORYU-4                 
1 41340U 16012D   25190.53563712  .00014493  00000+0  37249-3 0  9999
2 41340  30.9970 290.3223 0006437  18.0988 341.9886 15.37963191517408
RAVAN                   
1 41849U 16067B   25190.84845173  .00009486  00000+0  31906-3 0  9991
2 41849  98.0417  42.3653 0010214 126.0262 234.1925 15.31002069474971
CELTEE 1                
1 41850U 16067C   25191.08441755  .00003196  00000+0  17581-3 0  9993
2 41850  98.1045  29.6487 0001194  47.1115 313.0215 15.14873175474009
OPTICUBE 04             
1 41851U 16067D   25190.49354099  .00001340  00000+0  93055-4 0  9992
2 41851  98.0920  19.8235 0016148 190.4204 169.6690 15.07373210473502
AEROCUBE 8D             
1 41852U 16067E   25191.11529148  .00004102  00000+0  20584-3 0  9997
2 41852  98.1079  31.0184 0003053 217.0080 143.0942 15.17950267474069
AEROCUBE 8C             
1 41853U 16067F   25191.11847507  .00003935  00000+0  19678-3 0  9995
2 41853  98.0926  28.7601 0006754 149.5764 210.5861 15.18085410474055
PROMETHEUS 2-1          
1 41854U 16067G   25191.14902395  .00033055  00000+0  57249-3 0  9998
2 41854  98.0734  48.1268 0007593 134.8118 225.3750 15.50826782475143
